ONEWEB-0387             
1 49313U 21090AL  23188.39442140  .00000209  00000+0  48288-3 0  9994
2 49313  87.9267 128.6649 0002525  90.4083 269.7339 13.20776139 89123
ONEWEB-0388             
1 49314U 21090AM  23188.18742622  .00000045  00000+0  80574-4 0  9993
2 49314  87.9267 159.0429 0002128  82.7769 277.3606 13.19723541 85789
ONEWEB-0389             
1 50469U 21132A   23188.79012771 -.00000006  00000+0 -49063-4 0  9992
2 50469  87.9162 219.4922 0002690  97.9580 262.1857 13.17649172 77751
ONEWEB-0390             
1 50470U 21132B   23188.79235431  .00000034  00000+0  53499-4 0  9991
2 50470  87.9164 219.4970 0002335 102.2898 257.8495 13.17648555 77759
ONEWEB-0391             
1 50471U 21132C   23188.79459055  .00000019  00000+0  16745-4 0  9998
2 50471  87.9162 219.4675 0002425  95.2272 264.9136 13.17651345 77759
ONEWEB-0392             
1 50472U 21132D   23188.44395753  .00000126  00000+0  29074-3 0  9992
2 50472  87.9168 219.5750 0002366  99.1862 260.9537 13.17650025 77747
ONEWEB-0393             
1 50473U 21132E   23188.07431252  .00000026  00000+0  34024-4 0  9998
2 50473  87.9159 219.6180 0002165 101.5031 258.6344 13.17648308 77683
ONEWEB-0394             
1 50474U 21132F   23189.00370191  .00000044  00000+0  78663-4 0  9994
2 50474  87.9236 189.1735 0002247  86.8304 273.3085 13.18684227 81161
ONEWEB-0395             
1 50475U 21132G   23188.68681615 -.00000342  00000+0 -10021-2 0  9999
2 50475  87.8896 234.7269 0002206 101.7609 258.3766 13.11415307 76024
ONEWEB-0396             
1 50476U 21132H   23188.39034261  .00000040  00000+0  69070-4 0  9990
2 50476  87.9234 189.2872 0002348  85.3284 274.8117 13.18688420 81124
ONEWEB-0397             
1 50477U 21132J   23188.40511917  .00000022  00000+0  23748-4 0  9993
2 50477  87.9235 189.2851 0002424  84.9419 275.1990 13.18684856 81103
ONEWEB-0398             
1 50478U 21132K   23188.65503964  .00000580  00000+0  15998-2 0  9999
2 50478  87.8900 234.7276 0002264 110.4478 249.6893 13.11416990 75927
ONEWEB-0399             
1 50479U 21132L   23188.64232410  .00000194  00000+0  51169-3 0  9996
2 50479  87.8899 234.7418 0002078  86.5113 273.6253 13.11418468 75913
ONEWEB-0400             
1 50480U 21132M   23188.99102168  .00000014  00000+0  16901-5 0  9990
2 50480  87.9241 189.2180 0002024  96.0119 264.1244 13.18689037 81180
ONEWEB-0401             
1 50481U 21132N   23187.97092701  .00000076  00000+0  16011-3 0  9997
2 50481  87.9233 189.3791 0002162  76.3063 283.8310 13.18687850 81052
ONEWEB-0402             
1 50482U 21132P   23188.99949467  .00000052  00000+0  99888-4 0  9999
2 50482  87.9240 189.2174 0001764  69.1100 291.0221 13.18686203 81215
ONEWEB-0403             
1 50483U 21132Q   23187.96040298  .00000108  00000+0  24157-3 0  9998
2 50483  87.9214 189.4022 0002347  83.3855 276.7544 13.18686177 81032
ONEWEB-0404             
1 50484U 21132R   23188.62323656 -.00000402  00000+0 -11695-2 0  9996
2 50484  87.8891 234.7023 0002787  91.9715 268.1732 13.11418004 75993
ONEWEB-0405             
1 50485U 21132S   23188.38299493  .00000006  00000+0 -17377-4 0  9995
2 50485  87.9237 189.2969 0002185  73.3392 286.7979 13.18685823 81492
ONEWEB-0406             
1 50486U 21132T   23187.96462188  .00000074  00000+0  15392-3 0  9990
2 50486  87.9233 189.3811 0002647  88.7322 271.4113 13.18685945 81072
ONEWEB-0407             
1 50487U 21132U   23187.95829195  .00000105  00000+0  23354-3 0  9997
2 50487  87.9235 189.3894 0002220  83.3790 276.7595 13.18685010 81012
ONEWEB-0409             
1 50488U 21132V   23188.08703984 -.00000467  00000+0 -13536-2 0  9993
2 50488  87.8906 234.8214 0002733 102.3526 257.7908 13.11417946 75820
ONEWEB-0412             
1 50489U 21132W   23188.40300344 -.00000015  00000+0 -71741-4 0  9996
2 50489  87.9237 189.3292 0002218  69.6546 290.4824 13.18687900 81154
ONEWEB-0413             
1 50490U 21132X   23188.71074153  .00000023  00000+0  24657-4 0  9999
2 50490  87.9239 189.2376 0002040  75.2342 284.9016 13.18685692 81146
ONEWEB-0414             
1 50491U 21132Y   23188.39351101 -.00000042  00000+0 -14033-3 0  9994
2 50491  87.9151 189.3246 0002346  80.0595 280.0802 13.18682653 81133
ONEWEB-0417             
1 50492U 21132Z   23188.47676443  .00000033  00000+0  51481-4 0  9990
2 50492  87.9240 189.3272 0002345  93.1798 266.9602 13.18684199 81128
ONEWEB-0418             
1 50493U 21132AA  23187.95933234  .00000067  00000+0  13685-3 0  9997
2 50493  87.9238 189.3758 0002706  93.8024 266.3417 13.18687269 81102
ONEWEB-0419             
1 50494U 21132AB  23188.73181870 -.00000045  00000+0 -14706-3 0  9999
2 50494  87.9245 189.2469 0002235  99.7457 260.3928 13.18685204 81132
ONEWEB-0420             
1 50495U 21132AC  23188.39456116  .00000017  00000+0  10014-4 0  9996
2 50495  87.9241 189.3229 0001649  92.3463 267.7858 13.18688860 81097
ONEWEB-0421             
1 50496U 21132AD  23188.38825783  .00000003  00000+0 -24485-4 0  9999
2 50496  87.9241 189.3310 0002289  75.4211 284.7175 13.18683911 81131
ONEWEB-0424             
1 50497U 21132AE  23188.72757427  .00000046  00000+0  85040-4 0  9997
2 50497  87.9238 189.2691 0001640 105.5849 254.5464 13.18684535 81185
ONEWEB-0426             
1 50498U 21132AF  23188.08265122 -.00000015  00000+0 -70438-4 0  9996
2 50498  87.9238 189.3782 0002554  81.2456 278.8965 13.18686811 81057
ONEWEB-0427             
1 50499U 21132AG  23188.95312580  .00000056  00000+0  10955-3 0  9994
2 50499  87.9241 189.2261 0002471  92.1953 267.9462 13.18690767 81207
ONEWEB-0429             
1 50500U 21132AH  23188.40932556  .00000037  00000+0  60953-4 0  9991
2 50500  87.9222 189.3072 0001992  91.8060 268.3300 13.18686727 81096
ONEWEB-0430             
1 50501U 21132AJ  23188.01939371  .00000048  00000+0  90043-4 0  9996
2 50501  87.9197 189.3891 0001905  97.2212 262.9136 13.18689497 81083
ONEWEB-0432             
1 50502U 21132AK  23187.97515756  .00000085  00000+0  18402-3 0  9997
2 50502  87.9239 189.4184 0002005  89.4496 270.6866 13.18686062 81043
ONEWEB-0440             
1 50503U 21132AL  23188.41777031  .00000066  00000+0  13544-3 0  9995
2 50503  87.9243 189.3418 0002134  67.0713 293.0645 13.18685644 81088
ONEWEB-0450             
1 50504U 21132AM  23187.95618935  .00000160  00000+0  37373-3 0  9992
2 50504  87.9211 189.4360 0001630  84.1626 275.9692 13.18687506 81051
ONEWEB-0410             
1 51622U 22012A   23188.58019588  .00000032  00000+0  48797-4 0  9992
2 51622  87.9157 219.5922 0003463  89.0015 271.1514 13.17649166 73346
ONEWEB-0411             
1 51623U 22012B   23188.13607026 -.00000350  00000+0 -10377-2 0  9990
2 51623  87.8834 249.9639 0002315 108.0155 252.1225 13.10376930 69647
ONEWEB-0415             
1 51624U 22012C   23188.66738747 -.00000547  00000+0 -16021-2 0  9994
2 51624  87.8835 249.8836 0002194 110.3513 249.7850 13.10377764 69716
ONEWEB-0416             
1 51625U 22012D   23188.67853115 -.00000007  00000+0 -56219-4 0  9999
2 51625  87.8836 249.8689 0001883  96.4516 263.6826 13.10368168 69766
ONEWEB-0422             
1 51626U 22012E   23188.58910689  .00000010  00000+0 -84266-5 0  9997
2 51626  87.9153 219.5890 0001397  71.1611 288.9672 13.17650912 73441
ONEWEB-0423             
1 51627U 22012F   23188.58243033  .00000031  00000+0  46768-4 0  9996
2 51627  87.9155 219.5236 0002199  91.9505 268.1878 13.17647232 73349
ONEWEB-0425             
1 51628U 22012G   23188.68807366  .00000502  00000+0  14017-2 0  9996
2 51628  87.8831 249.8618 0002407  83.3035 276.8366 13.10372943 69761
ONEWEB-0428             
1 51629U 22012H   23188.13448184 -.00000325  00000+0 -96828-3 0  9992
2 51629  87.8833 249.9824 0001513  95.3200 264.8099 13.10364381 69642
ONEWEB-0431             
1 51630U 22012J   23188.69760281 -.00000342  00000+0 -10146-2 0  9997
2 51630  87.8833 249.8616 0001768 128.0117 232.1171 13.10376357 69785
ONEWEB-0434             
1 51631U 22012K   23188.69126250  .00000605  00000+0  16955-2 0  9994
2 51631  87.8832 249.8822 0001796  90.5630 269.5703 13.10372452 69763
ONEWEB-0435             
1 51632U 22012L   23188.70077584  .00000741  00000+0  20857-2 0  9999
2 51632  87.8830 249.8700 0001354  92.1373 267.9909 13.10375821 69740
ONEWEB-0436             
1 51633U 22012M   23188.65389239  .00000026  00000+0  33241-4 0  9996
2 51633  87.9156 219.5710 0001786  86.6901 273.4435 13.17650281 73331
ONEWEB-0438             
1 51634U 22012N   23188.68330504  .00000646  00000+0  18148-2 0  9996
2 51634  87.8833 249.8737 0002221  93.1264 267.0117 13.10372985 69783
ONEWEB-0439             
1 51635U 22012P   23188.68648786  .00000449  00000+0  12496-2 0  9992
2 51635  87.8834 249.8549 0001935  94.1057 266.0292 13.10371361 69755
ONEWEB-0442             
1 51636U 22012Q   23188.79681335 -.00000257  00000+0 -69612-3 0  9994
2 51636  87.9156 219.5245 0003031  98.9531 261.1943 13.17649038 73344
ONEWEB-0443             
1 51637U 22012R   23187.82752197 -.00000006  00000+0 -48414-4 0  9993
2 51637  87.9156 219.7221 0001799  73.9310 286.2019 13.17650114 73268
ONEWEB-0444             
1 51638U 22012S   23188.67693052 -.00000105  00000+0 -33728-3 0  9993
2 51638  87.8836 249.8837 0001811  91.0584 269.0751 13.10375353 69774
ONEWEB-0445             
1 51639U 22012T   23188.69919642  .00000693  00000+0  19495-2 0  9996
2 51639  87.8813 249.8714 0002527 103.6963 256.4445 13.10374820 69778
ONEWEB-0446             
1 51640U 22012U   23188.67532903 -.00000220  00000+0 -66783-3 0  9998
2 51640  87.8835 249.8777 0002116 103.6236 256.5127 13.10377723 69773
ONEWEB-0448             
1 51641U 22012V   23188.68012061  .00000092  00000+0  22843-3 0  9992
2 51641  87.8834 249.8787 0001847  89.8208 270.3131 13.10374229 69731
ONEWEB-0449             
1 51642U 22012W   23188.68489483  .00000372  00000+0  10302-2 0  9996
2 51642  87.8836 249.8788 0002372  92.6528 267.4871 13.10373196 69758
